{"type": "FeatureCollection", "features": [ {"type": "Feature", "properties": {"norad_id": 64202, "name": "GPS BIII-8  (PRN 21)", "group": "gnss", "lat": -54.89979088277841, "lon": -58.62207413108095, "alt_km": 20177.52721329997, "timestamp": "2025-12-14T11:29:50.304156+00:00", "meta": {"OBJECT_NAME": "GPS BIII-8  (PRN 21)", "OBJECT_ID": "2025-116A", "EPOCH": "2025-12-13T02:48:10.465056", "MEAN_MOTION": 2.00558313, "ECCENTRICITY": 0.00055988, "INCLINATION": 55.106, "RA_OF_ASC_NODE": 38.6253, "ARG_OF_PERICENTER": 307.9903, "MEAN_ANOMALY": 54.3389, "EPHEMERIS_TYPE": 0, "CLASSIFICATION_TYPE": "U", "NORAD_CAT_ID": 64202, "ELEMENT_SET_NO": 999, "REV_AT_EPOCH": 414, "BSTAR": 0, "MEAN_MOTION_DOT": -9.8e-07, "MEAN_MOTION_DDOT": 0}, "tle": {"line1": "1 64202U 25116A   25347.11678779 -.00000098  00000+0  00000+0 0  9992", "line2": "2 64202  55.1060  38.6253 0005598 307.9903  54.3389  2.00558313  4146"}}, "geometry": {"type": "Point", "coordinates": [-58.62207413108095, -54.89979088277841]}}, {"type": "Feature", "properties": {"norad_id": 65590, "name": "COSMOS 2596 (708K)", "group": "gnss", "lat": -56.97611180794366, "lon": -85.16278198375956, "alt_km": 19101.506818504273, "timestamp": "2025-12-14T11:29:50.304171+00:00", "meta": {"OBJECT_NAME": "COSMOS 2596 (708K)", "OBJECT_ID": "2025-206B", "EPOCH": "2025-12-13T03:40:38.538048", "MEAN_MOTION": 2.13100493, "ECCENTRICITY": 0.00140265, "INCLINATION": 64.7439, "RA_OF_ASC_NODE": 321.4594, "ARG_OF_PERICENTER": 306.3445, "MEAN_ANOMALY": 48.5588, "EPHEMERIS_TYPE": 0, "CLASSIFICATION_TYPE": "U", "NORAD_CAT_ID": 65590, "ELEMENT_SET_NO": 999, "REV_AT_EPOCH": 194, "BSTAR": 0, "MEAN_MOTION_DOT": -6.1e-07, "MEAN_MOTION_DDOT": 0}, "tle": {"line1": "1 65590U 25206B   25347.15322382 -.00000061  00000+0  00000+0 0  9993", "line2": "2 65590  64.7439 321.4594 0014026 306.3445  48.5588  2.13100493  1941"}}, "geometry": {"type": "Point", "coordinates": [-85.16278198375956, -56.97611180794366]}}]}